;FLAVOR:Marlin
;TIME:256
;Filament used: 0.126439m
;Layer height: 0.2
;MINX:110.7
;MINY:113.7
;MINZ:0.2
;MAXX:124.3
;MAXY:121.3
;MAXZ:4
;TARGET_MACHINE.NAME:Creality Ender-3
;Generated with Cura_SteamEngine 5.10.2
M140 S50
M105
M190 S50
M104 S200
M105
M109 S200
; Ender 3 Custom Start G-code
G92 E0 ; Reset Extruder
G28 ; Home all axes
G1 Z2.0 F3000 ; Move Z Axis up little to prevent scratching of Heat Bed
G1 X0.1 Y20 Z0.3 F5000.0 ; Move to start position
G1 X0.1 Y200.0 Z0.3 F1500.0 E15 ; Draw the first line
G1 X0.4 Y200.0 Z0.3 F5000.0 ; Move to side a little
G1 X0.4 Y20 Z0.3 F1500.0 E30 ; Draw the second line
G92 E0 ; Reset Extruder
G1 Z2.0 F3000 ; Move Z Axis up little to prevent scratching of Heat Bed
G1 X5 Y20 Z0.3 F5000.0 ; Move over to prevent blob squish
M82 ;absolute extrusion mode
G92 E0
G92 E0
G1 F2700 E-5
;LAYER_COUNT:20
;LAYER:0
M107
;MESH:TouchSpacer.stl
G0 F6000 X117.5 Y120.9 Z0.2
;TYPE:WALL-INNER
G1 F2700 E0
G1 F1200 X123.9 Y120.9 E0.21286
G1 X123.9 Y114.1 E0.43903
G1 X111.1 Y114.1 E0.86476
G1 X111.1 Y120.9 E1.09093
G1 X117.5 Y120.9 E1.3038
G0 F6000 X117.5 Y121.3
;TYPE:WALL-OUTER
G1 F1200 X124.3 Y121.3 E1.52997
G1 X124.3 Y113.7 E1.78274
G1 X110.7 Y113.7 E2.23508
G1 X110.7 Y121.3 E2.48786
G1 X117.5 Y121.3 E2.71403
G0 F6000 X117.5 Y120.54
;TYPE:SKIN
G1 F1200 X111.46 Y120.54 E2.91492
G1 X111.46 Y114.46 E3.11714
G1 X123.54 Y114.46 E3.51892
G1 X123.54 Y120.54 E3.72114
G1 X117.5 Y120.54 E3.92204
G0 F6000 X117.5 Y120.8
G0 X111.272 Y120.728
G0 X111.2 Y120.145
G0 X111.66 Y120.145
G1 F1200 X111.855 Y120.34 E3.93121
G0 F6000 X112.421 Y120.34
G1 F1200 X111.66 Y119.58 E3.96698
G0 F6000 X111.66 Y119.014
G1 F1200 X112.986 Y120.34 E4.02935
G0 F6000 X113.552 Y120.34
G1 F1200 X111.66 Y118.448 E4.11834
G0 F6000 X111.66 Y117.882
G1 F1200 X114.118 Y120.34 E4.23396
G0 F6000 X114.684 Y120.34
G1 F1200 X111.66 Y117.317 E4.37618
G0 F6000 X111.66 Y116.751
G1 F1200 X115.249 Y120.34 E4.54499
G0 F6000 X115.815 Y120.34
G1 F1200 X111.66 Y116.185 E4.74043
G0 F6000 X111.66 Y115.62
G1 F1200 X116.381 Y120.34 E4.96247
G0 F6000 X116.946 Y120.34
G1 F1200 X111.66 Y115.054 E5.21111
G0 F6000 X111.831 Y114.659
G1 F1200 X117.512 Y120.34 E5.47832
G0 F6000 X118.078 Y120.34
G1 F1200 X112.397 Y114.659 E5.74554
G0 F6000 X112.962 Y114.659
G1 F1200 X118.643 Y120.34 E6.01276
G0 F6000 X119.209 Y120.34
G1 F1200 X113.528 Y114.659 E6.27997
G0 F6000 X114.094 Y114.659
G1 F1200 X119.775 Y120.34 E6.54719
G0 F6000 X120.34 Y120.34
G1 F1200 X114.659 Y114.659 E6.81441
G0 F6000 X115.225 Y114.659
G1 F1200 X120.906 Y120.34 E7.08162
G0 F6000 X121.472 Y120.34
G1 F1200 X115.791 Y114.659 E7.34884
G0 F6000 X116.357 Y114.659
G1 F1200 X122.037 Y120.34 E7.61603
G0 F6000 X122.603 Y120.34
G1 F1200 X116.922 Y114.659 E7.88325
G0 F6000 X117.488 Y114.659
G1 F1200 X123.169 Y120.34 E8.15047
G0 F6000 X123.34 Y119.946
G1 F1200 X118.054 Y114.659 E8.39913
G0 F6000 X118.619 Y114.659
G1 F1200 X123.34 Y119.38 E8.62119
G0 F6000 X123.34 Y118.814
G1 F1200 X119.185 Y114.659 E8.81663
G0 F6000 X119.751 Y114.659
G1 F1200 X123.34 Y118.249 E8.98547
G0 F6000 X123.34 Y117.683
G1 F1200 X120.316 Y114.659 E9.12771
G0 F6000 X120.882 Y114.659
G1 F1200 X123.34 Y117.117 E9.24332
G0 F6000 X123.34 Y116.552
G1 F1200 X121.448 Y114.659 E9.33234
G0 F6000 X122.013 Y114.659
G1 F1200 X123.34 Y115.986 E9.39476
G0 F6000 X123.34 Y115.42
G1 F1200 X122.579 Y114.659 E9.43055
G0 F6000 X123.145 Y114.659
G1 F1200 X123.34 Y114.855 E9.43975
;MESH:NONMESH
G0 F300 X123.34 Y114.855 Z0.4
G0 F6000 X123.8 Y114.855
G0 X123.728 Y120.728
G0 X117.5 Y120.9
;TIME_ELAPSED:21.908483
;LAYER:1
;note -- min layer time used
M106 S85
;TYPE:WALL-INNER
;MESH:TouchSpacer.stl
G1 F1736 X123.9 Y120.9 E9.65261
G1 X123.9 Y114.1 E9.87878
G1 X111.1 Y114.1 E10.30451
G1 X111.1 Y120.9 E10.53068
G1 X117.5 Y120.9 E10.74355
G0 F10500 X117.5 Y121.3
;TYPE:WALL-OUTER
G1 F1736 X124.3 Y121.3 E10.96972
G1 X124.3 Y113.7 E11.22249
G1 X110.7 Y113.7 E11.67483
G1 X110.7 Y121.3 E11.92761
G1 X117.5 Y121.3 E12.15378
G0 F10500 X117.5 Y120.54
;TYPE:SKIN
G1 F1736 X111.46 Y120.54 E12.35467
G1 X111.46 Y114.46 E12.55689
G1 X123.54 Y114.46 E12.95867
G1 X123.54 Y120.54 E13.16089
G1 X117.5 Y120.54 E13.36178
G0 F10500 X117.5 Y120.8
G0 X123.728 Y120.728
G0 X123.8 Y119.905
G0 X123.34 Y119.905
G1 F1736 X122.904 Y120.34 E13.38227
G0 F10500 X122.339 Y120.34
G1 F1736 X123.34 Y119.339 E13.42935
G0 F10500 X123.34 Y118.773
G1 F1736 X121.773 Y120.34 E13.50306
G0 F10500 X121.207 Y120.34
G1 F1736 X123.34 Y118.208 E13.60337
G0 F10500 X123.34 Y117.642
G1 F1736 X120.642 Y120.34 E13.73027
G0 F10500 X120.076 Y120.34
G1 F1736 X123.34 Y117.076 E13.8838
G0 F10500 X123.34 Y116.511
G1 F1736 X119.51 Y120.34 E14.06393
G0 F10500 X118.945 Y120.34
G1 F1736 X123.34 Y115.945 E14.27066
G0 F10500 X123.34 Y115.379
G1 F1736 X118.379 Y120.34 E14.50401
G0 F10500 X117.813 Y120.34
G1 F1736 X123.34 Y114.814 E14.76396
G0 F10500 X122.928 Y114.659
G1 F1736 X117.247 Y120.34 E15.03117
G0 F10500 X116.682 Y120.34
G1 F1736 X122.363 Y114.659 E15.29839
G0 F10500 X121.797 Y114.659
G1 F1736 X116.116 Y120.34 E15.56561
G0 F10500 X115.55 Y120.34
G1 F1736 X121.231 Y114.659 E15.83282
G0 F10500 X120.666 Y114.659
G1 F1736 X114.985 Y120.34 E16.10004
G0 F10500 X114.419 Y120.34
G1 F1736 X120.1 Y114.659 E16.36726
G0 F10500 X119.534 Y114.659
G1 F1736 X113.853 Y120.34 E16.63447
G0 F10500 X113.288 Y120.34
G1 F1736 X118.969 Y114.659 E16.90169
G0 F10500 X118.403 Y114.659
G1 F1736 X112.722 Y120.34 E17.16891
G0 F10500 X112.156 Y120.34
G1 F1736 X117.837 Y114.659 E17.43612
G0 F10500 X117.272 Y114.659
G1 F1736 X111.66 Y120.271 E17.7001
G0 F10500 X111.66 Y119.705
G1 F1736 X116.706 Y114.659 E17.93744
G0 F10500 X116.14 Y114.659
G1 F1736 X111.66 Y119.14 E18.14819
G0 F10500 X111.66 Y118.574
G1 F1736 X115.574 Y114.659 E18.33232
G0 F10500 X115.009 Y114.659
G1 F1736 X111.66 Y118.008 E18.48985
G0 F10500 X111.66 Y117.443
G1 F1736 X114.443 Y114.659 E18.62077
G0 F10500 X113.877 Y114.659
G1 F1736 X111.66 Y116.877 E18.72508
G0 F10500 X111.66 Y116.311
G1 F1736 X113.312 Y114.659 E18.80278
G0 F10500 X112.746 Y114.659
G1 F1736 X111.66 Y115.746 E18.85389
G0 F10500 X111.66 Y115.18
G1 F1736 X112.18 Y114.659 E18.87837
;MESH:NONMESH
G0 F300 X112.18 Y114.659 Z0.6
G0 F10500 X112.18 Y114.2
G0 X111.272 Y114.272
G0 X111.272 Y120.728
G0 X117.5 Y120.9
;TIME_ELAPSED:35.802205
;LAYER:2
;note -- min layer time used
M106 S170
;TYPE:WALL-INNER
;MESH:TouchSpacer.stl
G1 F1726.1 X123.9 Y120.9 E19.09124
G1 X123.9 Y114.1 E19.3174
G1 X111.1 Y114.1 E19.74313
G1 X111.1 Y120.9 E19.9693
G1 X117.5 Y120.9 E20.18217
G0 F15000 X117.5 Y121.3
;TYPE:WALL-OUTER
G1 F1726.1 X124.3 Y121.3 E20.40834
G1 X124.3 Y113.7 E20.66111
G1 X110.7 Y113.7 E21.11345
G1 X110.7 Y121.3 E21.36623
G1 X117.5 Y121.3 E21.5924
G0 F15000 X117.5 Y120.54
;TYPE:SKIN
G1 F1726.1 X111.46 Y120.54 E21.79329
G1 X111.46 Y114.46 E21.99551
G1 X123.54 Y114.46 E22.39729
G1 X123.54 Y120.54 E22.59951
G1 X117.5 Y120.54 E22.80041
G0 F15000 X117.5 Y120.8
G0 X111.272 Y120.728
G0 X111.2 Y120.145
G0 X111.66 Y120.145
G1 F1726.1 X111.855 Y120.34 E22.80958
G0 F15000 X112.421 Y120.34
G1 F1726.1 X111.66 Y119.58 E22.84535
G0 F15000 X111.66 Y119.014
G1 F1726.1 X112.986 Y120.34 E22.90772
G0 F15000 X113.552 Y120.34
G1 F1726.1 X111.66 Y118.448 E22.99671
G0 F15000 X111.66 Y117.882
G1 F1726.1 X114.118 Y120.34 E23.11233
G0 F15000 X114.684 Y120.34
G1 F1726.1 X111.66 Y117.317 E23.25455
G0 F15000 X111.66 Y116.751
G1 F1726.1 X115.249 Y120.34 E23.42336
G0 F15000 X115.815 Y120.34
G1 F1726.1 X111.66 Y116.185 E23.6188
G0 F15000 X111.66 Y115.62
G1 F1726.1 X116.381 Y120.34 E23.84084
G0 F15000 X116.946 Y120.34
G1 F1726.1 X111.66 Y115.054 E24.08948
G0 F15000 X111.831 Y114.659
G1 F1726.1 X117.512 Y120.34 E24.35669
G0 F15000 X118.078 Y120.34
G1 F1726.1 X112.397 Y114.659 E24.62391
G0 F15000 X112.962 Y114.659
G1 F1726.1 X118.643 Y120.34 E24.89113
G0 F15000 X119.209 Y120.34
G1 F1726.1 X113.528 Y114.659 E25.15834
G0 F15000 X114.094 Y114.659
G1 F1726.1 X119.775 Y120.34 E25.42556
G0 F15000 X120.34 Y120.34
G1 F1726.1 X114.659 Y114.659 E25.69278
G0 F15000 X115.225 Y114.659
G1 F1726.1 X120.906 Y120.34 E25.95999
G0 F15000 X121.472 Y120.34
G1 F1726.1 X115.791 Y114.659 E26.22721
G0 F15000 X116.357 Y114.659
G1 F1726.1 X122.037 Y120.34 E26.4944
G0 F15000 X122.603 Y120.34
G1 F1726.1 X116.922 Y114.659 E26.76162
G0 F15000 X117.488 Y114.659
G1 F1726.1 X123.169 Y120.34 E27.02884
G0 F15000 X123.34 Y119.946
G1 F1726.1 X118.054 Y114.659 E27.2775
G0 F15000 X118.619 Y114.659
G1 F1726.1 X123.34 Y119.38 E27.49956
G0 F15000 X123.34 Y118.814
G1 F1726.1 X119.185 Y114.659 E27.695
G0 F15000 X119.751 Y114.659
G1 F1726.1 X123.34 Y118.249 E27.86384
G0 F15000 X123.34 Y117.683
G1 F1726.1 X120.316 Y114.659 E28.00608
G0 F15000 X120.882 Y114.659
G1 F1726.1 X123.34 Y117.117 E28.12169
G0 F15000 X123.34 Y116.552
G1 F1726.1 X121.448 Y114.659 E28.21071
G0 F15000 X122.013 Y114.659
G1 F1726.1 X123.34 Y115.986 E28.27313
G0 F15000 X123.34 Y115.42
G1 F1726.1 X122.579 Y114.659 E28.30892
G0 F15000 X123.145 Y114.659
G1 F1726.1 X123.34 Y114.855 E28.31812
;MESH:NONMESH
G0 F300 X123.34 Y114.855 Z0.8
G0 F15000 X123.8 Y114.855
G0 X123.728 Y120.728
G0 X117.5 Y120.9
;TIME_ELAPSED:49.772271
;LAYER:3
;note -- min layer time used
M106 S255
;TYPE:WALL-INNER
;MESH:TouchSpacer.stl
G1 F1725.9 X123.9 Y120.9 E28.53099
G1 X123.9 Y114.1 E28.75715
G1 X111.1 Y114.1 E29.18288
G1 X111.1 Y120.9 E29.40905
G1 X117.5 Y120.9 E29.62192
G0 F15000 X117.5 Y121.3
;TYPE:WALL-OUTER
G1 F1725.9 X124.3 Y121.3 E29.84809
G1 X124.3 Y113.7 E30.10086
G1 X110.7 Y113.7 E30.5532
G1 X110.7 Y121.3 E30.80598
G1 X117.5 Y121.3 E31.03215
G0 F15000 X117.5 Y120.54
;TYPE:SKIN
G1 F1725.9 X111.46 Y120.54 E31.23304
G1 X111.46 Y114.46 E31.43526
G1 X123.54 Y114.46 E31.83704
G1 X123.54 Y120.54 E32.03926
G1 X117.5 Y120.54 E32.24016
G0 F15000 X117.5 Y120.8
G0 X123.728 Y120.728
G0 X123.8 Y119.905
G0 X123.34 Y119.905
G1 F1725.9 X122.904 Y120.34 E32.26064
G0 F15000 X122.339 Y120.34
G1 F1725.9 X123.34 Y119.339 E32.30772
G0 F15000 X123.34 Y118.773
G1 F1725.9 X121.773 Y120.34 E32.38143
G0 F15000 X121.207 Y120.34
G1 F1725.9 X123.34 Y118.208 E32.48174
G0 F15000 X123.34 Y117.642
G1 F1725.9 X120.642 Y120.34 E32.60864
G0 F15000 X120.076 Y120.34
G1 F1725.9 X123.34 Y117.076 E32.76217
G0 F15000 X123.34 Y116.511
G1 F1725.9 X119.51 Y120.34 E32.9423
G0 F15000 X118.945 Y120.34
G1 F1725.9 X123.34 Y115.945 E33.14903
G0 F15000 X123.34 Y115.379
G1 F1725.9 X118.379 Y120.34 E33.38238
G0 F15000 X117.813 Y120.34
G1 F1725.9 X123.34 Y114.814 E33.64233
G0 F15000 X122.928 Y114.659
G1 F1725.9 X117.247 Y120.34 E33.90954
G0 F15000 X116.682 Y120.34
G1 F1725.9 X122.363 Y114.659 E34.17676
G0 F15000 X121.797 Y114.659
G1 F1725.9 X116.116 Y120.34 E34.44398
G0 F15000 X115.55 Y120.34
G1 F1725.9 X121.231 Y114.659 E34.71119
G0 F15000 X120.666 Y114.659
G1 F1725.9 X114.985 Y120.34 E34.97841
G0 F15000 X114.419 Y120.34
G1 F1725.9 X120.1 Y114.659 E35.24563
G0 F15000 X119.534 Y114.659
G1 F1725.9 X113.853 Y120.34 E35.51284
G0 F15000 X113.288 Y120.34
G1 F1725.9 X118.969 Y114.659 E35.78006
G0 F15000 X118.403 Y114.659
G1 F1725.9 X112.722 Y120.34 E36.04728
G0 F15000 X112.156 Y120.34
G1 F1725.9 X117.837 Y114.659 E36.31449
G0 F15000 X117.272 Y114.659
G1 F1725.9 X111.66 Y120.271 E36.57847
G0 F15000 X111.66 Y119.705
G1 F1725.9 X116.706 Y114.659 E36.81581
G0 F15000 X116.14 Y114.659
G1 F1725.9 X111.66 Y119.14 E37.02656
G0 F15000 X111.66 Y118.574
G1 F1725.9 X115.574 Y114.659 E37.21069
G0 F15000 X115.009 Y114.659
G1 F1725.9 X111.66 Y118.008 E37.36822
G0 F15000 X111.66 Y117.443
G1 F1725.9 X114.443 Y114.659 E37.49914
G0 F15000 X113.877 Y114.659
G1 F1725.9 X111.66 Y116.877 E37.60345
G0 F15000 X111.66 Y116.311
G1 F1725.9 X113.312 Y114.659 E37.68115
G0 F15000 X112.746 Y114.659
G1 F1725.9 X111.66 Y115.746 E37.73226
G0 F15000 X111.66 Y115.18
G1 F1725.9 X112.18 Y114.659 E37.75674
;MESH:NONMESH
G0 F300 X112.18 Y114.659 Z1
G0 F15000 X112.18 Y114.2
G0 X111.272 Y114.272
G0 X111.272 Y120.728
G0 X117.5 Y120.9
;TIME_ELAPSED:63.770432
;LAYER:4
;note -- min layer time used
;TYPE:WALL-INNER
;MESH:TouchSpacer.stl
G1 F739.3 X123.9 Y120.9 E37.96961
G1 X123.9 Y114.1 E38.19578
G1 X111.1 Y114.1 E38.6215
G1 X111.1 Y120.9 E38.84767
G1 X117.5 Y120.9 E39.06054
G0 F15000 X117.5 Y121.3
;TYPE:WALL-OUTER
G1 F739.3 X124.3 Y121.3 E39.28671
G1 X124.3 Y113.7 E39.53948
G1 X110.7 Y113.7 E39.99182
G1 X110.7 Y121.3 E40.2446
G1 X117.5 Y121.3 E40.47077
G0 F15000 X117.5 Y120.59
G0 X115.878 Y120.59
G0 X115.878 Y120.82
;TYPE:FILL
G1 F739.3 X117.657 Y114.18 E40.6994
G0 F15000 X117.657 Y114.41
G0 X115.18 Y114.41
G0 X115.18 Y114.18
G1 F739.3 X121.82 Y120.821 E41.01175
G0 F15000 X122.09 Y120.82
G1 F739.3 X123.82 Y114.362 E41.23412
G1 X123.82 Y114.335
G1 X123.665 Y114.18 E41.24141
G0 F15000 X123.665 Y114.41
G0 X123.59 Y116.538
G0 X123.819 Y116.538
G1 F739.3 X111.18 Y119.925 E41.67662
G0 F15000 X111.41 Y119.925
G0 X111.41 Y118.665
G0 X111.18 Y118.665
G1 F739.3 X113.335 Y120.821 E41.77801
G0 F15000 X113.335 Y120.59
G0 X111.41 Y115.169
G0 X111.18 Y115.169
G1 F739.3 X111.446 Y114.18 E41.81207
G0 F15000 X111.71 Y114.71
;MESH:NONMESH
G0 F300 X111.71 Y114.71 Z1.2
G0 F15000 X117.5 Y120.59
G0 X117.5 Y120.9
;TIME_ELAPSED:75.070100
;LAYER:5
;note -- min layer time used
;TYPE:WALL-INNER
;MESH:TouchSpacer.stl
G1 F737.9 X123.9 Y120.9 E42.02494
G1 X123.9 Y114.1 E42.2511
G1 X111.1 Y114.1 E42.67683
G1 X111.1 Y120.9 E42.903
G1 X117.5 Y120.9 E43.11587
G0 F15000 X117.5 Y121.3
;TYPE:WALL-OUTER
G1 F737.9 X124.3 Y121.3 E43.34204
G1 X124.3 Y113.7 E43.59481
G1 X110.7 Y113.7 E44.04715
G1 X110.7 Y121.3 E44.29993
G1 X117.5 Y121.3 E44.5261
G0 F15000 X117.5 Y120.59
G0 X115.732 Y120.59
G0 X115.732 Y120.82
;TYPE:FILL
G1 F737.9 X117.511 Y114.18 E44.75473
G0 F15000 X117.511 Y114.41
G0 X115.379 Y114.41
G0 X115.379 Y114.18
G1 F737.9 X122.02 Y120.821 E45.06711
G1 X121.944 Y120.82
G1 X123.723 Y114.179 E45.29577
G0 F15000 X123.62 Y114.38
G0 X123.59 Y116.684
G0 X123.819 Y116.684
G1 F737.9 X111.181 Y120.071 E45.73095
G0 F15000 X111.41 Y120.071
G0 X111.41 Y118.466
G0 X111.18 Y118.466
G1 F737.9 X113.534 Y120.821 E45.8417
G0 F15000 X113.534 Y120.59
G0 X111.41 Y114.624
G0 X111.18 Y114.624
G1 F737.9 X111.299 Y114.18 E45.85699
G0 F15000 X111.71 Y114.592
;MESH:NONMESH
G0 F300 X111.71 Y114.592 Z1.4
G0 F15000 X117.5 Y120.59
G0 X117.5 Y120.9
;TIME_ELAPSED:86.354695
;LAYER:6
;note -- min layer time used
;TYPE:WALL-INNER
;MESH:TouchSpacer.stl
G1 F734.6 X123.9 Y120.9 E46.06985
G1 X123.9 Y114.1 E46.29602
G1 X111.1 Y114.1 E46.72175
G1 X111.1 Y120.9 E46.94792
G1 X117.5 Y120.9 E47.16078
G0 F15000 X117.5 Y121.3
;TYPE:WALL-OUTER
G1 F734.6 X124.3 Y121.3 E47.38695
G1 X124.3 Y113.7 E47.63973
G1 X110.7 Y113.7 E48.09207
G1 X110.7 Y121.3 E48.34485
G1 X117.5 Y121.3 E48.57101
G0 F15000 X117.5 Y120.59
G0 X115.586 Y120.59
G0 X115.586 Y120.821
;TYPE:FILL
G1 F734.6 X117.365 Y114.179 E48.79971
G0 F15000 X117.365 Y114.41
G0 X115.579 Y114.41
G0 X115.579 Y114.18
G1 F734.6 X122.219 Y120.821 E49.11206
G0 F15000 X121.798 Y120.82
G1 F734.6 X123.577 Y114.179 E49.34073
G0 F15000 X123.577 Y114.41
G0 X123.59 Y116.83
G0 X123.819 Y116.83
G1 F734.6 X111.181 Y120.217 E49.77591
G0 F15000 X111.41 Y120.217
G0 X111.41 Y118.266
G0 X111.18 Y118.266
G1 F734.6 X113.734 Y120.821 E49.89606
G0 F15000 X113.734 Y120.29
;MESH:NONMESH
G0 F300 X113.734 Y120.29 Z1.6
G0 F15000 X117.5 Y120.59
G0 X117.5 Y120.9
;TIME_ELAPSED:97.404074
;LAYER:7
;note -- min layer time used
;TYPE:WALL-INNER
;MESH:TouchSpacer.stl
G1 F735.1 X123.9 Y120.9 E50.10893
G1 X123.9 Y114.1 E50.3351
G1 X111.1 Y114.1 E50.76083
G1 X111.1 Y120.9 E50.987
G1 X117.5 Y120.9 E51.19986
G0 F15000 X117.5 Y121.3
;TYPE:WALL-OUTER
G1 F735.1 X124.3 Y121.3 E51.42603
G1 X124.3 Y113.7 E51.67881
G1 X110.7 Y113.7 E52.13114
G1 X110.7 Y121.3 E52.38392
G1 X117.5 Y121.3 E52.61009
G0 F15000 X117.5 Y120.59
G0 X115.439 Y120.59
G0 X115.439 Y120.821
;TYPE:FILL
G1 F735.1 X117.218 Y114.18 E52.83876
G0 F15000 X117.218 Y114.41
G0 X115.78 Y114.41
G0 X115.78 Y114.18
G1 F735.1 X122.42 Y120.821 E53.15111
G0 F15000 X121.651 Y120.82
G1 F735.1 X123.43 Y114.18 E53.37974
G0 F15000 X123.43 Y114.41
G0 X123.59 Y116.977
G0 X123.819 Y116.977
G1 F735.1 X111.181 Y120.364 E53.81492
G0 F15000 X111.41 Y120.364
G0 X111.41 Y118.066
G0 X111.18 Y118.066
G1 F735.1 X113.935 Y120.821 E53.94451
G0 F15000 X113.935 Y120.29
;MESH:NONMESH
G0 F300 X113.935 Y120.29 Z1.8
G0 F15000 X117.5 Y120.59
G0 X117.5 Y120.9
;TIME_ELAPSED:108.490722
;LAYER:8
;note -- min layer time used
;TYPE:WALL-INNER
;MESH:TouchSpacer.stl
G1 F742 X123.9 Y120.9 E54.15737
G1 X123.9 Y114.1 E54.38354
G1 X111.1 Y114.1 E54.80927
G1 X111.1 Y120.9 E55.03544
G1 X117.5 Y120.9 E55.2483
G0 F15000 X117.5 Y121.3
;TYPE:WALL-OUTER
G1 F742 X124.3 Y121.3 E55.47447
G1 X124.3 Y113.7 E55.72725
G1 X110.7 Y113.7 E56.17959
G1 X110.7 Y121.3 E56.43236
G1 X117.5 Y121.3 E56.65853
G0 F15000 X117.5 Y120.59
G0 X115.293 Y120.59
G0 X115.293 Y120.821
;TYPE:FILL
G1 F742 X117.072 Y114.179 E56.88723
G0 F15000 X117.072 Y114.41
G0 X115.979 Y114.41
G0 X115.979 Y114.18
G1 F742 X122.619 Y120.821 E57.19958
G0 F15000 X122.619 Y120.59
G0 X121.505 Y120.59
G0 X121.505 Y120.821
G1 F742 X123.284 Y114.179 E57.42828
G0 F15000 X123.284 Y114.41
G0 X123.59 Y117.123
G0 X123.82 Y117.123
G1 F742 X111.181 Y120.51 E57.86349
G0 F15000 X111.41 Y120.51
G0 X111.41 Y117.866
G0 X111.18 Y117.866
G1 F742 X114.134 Y120.821 E58.00246
G0 F15000 X114.134 Y120.59
G0 X111.621 Y114.41
G0 X111.621 Y114.18
G1 F742 X111.181 Y114.298 E58.01761
G0 F15000 X111.71 Y114.592
;MESH:NONMESH
G0 F300 X111.71 Y114.592 Z2
G0 F15000 X117.5 Y120.59
G0 X117.5 Y120.9
;TIME_ELAPSED:119.924023
;LAYER:9
;note -- min layer time used
;TYPE:WALL-INNER
;MESH:TouchSpacer.stl
G1 F748.7 X123.9 Y120.9 E58.23048
G1 X123.9 Y114.1 E58.45665
G1 X111.1 Y114.1 E58.88238
G1 X111.1 Y120.9 E59.10854
G1 X117.5 Y120.9 E59.32141
G0 F15000 X117.5 Y121.3
;TYPE:WALL-OUTER
G1 F748.7 X124.3 Y121.3 E59.54758
G1 X124.3 Y113.7 E59.80036
G1 X110.7 Y113.7 E60.25269
G1 X110.7 Y121.3 E60.50547
G1 X117.5 Y121.3 E60.73164
G0 F15000 X117.5 Y120.59
G0 X115.146 Y120.59
G0 X115.146 Y120.821
;TYPE:FILL
G1 F748.7 X116.925 Y114.179 E60.96034
G0 F15000 X116.18 Y114.18
G1 F748.7 X122.82 Y120.821 E61.27269
G0 F15000 X122.82 Y120.59
G0 X121.358 Y120.59
G0 X121.358 Y120.82
G1 F748.7 X123.137 Y114.179 E61.50136
G0 F15000 X123.137 Y114.41
G0 X123.59 Y117.27
G0 X123.819 Y117.27
G1 F748.7 X111.181 Y120.657 E61.93653
G0 F15000 X111.41 Y120.657
G0 X111.41 Y117.665
G0 X111.18 Y117.665
G1 F748.7 X114.335 Y120.821 E62.08496
G0 F15000 X114.335 Y120.59
G0 X112.17 Y114.41
G0 X112.17 Y114.18
G1 F748.7 X111.181 Y114.445 E62.11901
G0 F15000 X111.71 Y114.71
;MESH:NONMESH
G0 F300 X111.71 Y114.71 Z2.2
G0 F15000 X117.5 Y120.59
G0 X117.5 Y120.9
;TIME_ELAPSED:131.304289
;LAYER:10
;note -- min layer time used
;TYPE:WALL-INNER
;MESH:TouchSpacer.stl
G1 F753.9 X123.9 Y120.9 E62.33188
G1 X123.9 Y114.1 E62.55805
G1 X111.1 Y114.1 E62.98378
G1 X111.1 Y120.9 E63.20994
G1 X117.5 Y120.9 E63.42281
G0 F15000 X117.5 Y121.3
;TYPE:WALL-OUTER
G1 F753.9 X124.3 Y121.3 E63.64898
G1 X124.3 Y113.7 E63.90176
G1 X110.7 Y113.7 E64.35409
G1 X110.7 Y121.3 E64.60687
G1 X117.5 Y121.3 E64.83304
G0 F15000 X117.5 Y120.59
G0 X115 Y120.59
G0 X115 Y120.821
;TYPE:FILL
G1 F753.9 X116.779 Y114.179 E65.06174
G0 F15000 X116.379 Y114.18
G1 F753.9 X123.02 Y120.821 E65.37411
G0 F15000 X123.02 Y120.59
G0 X121.211 Y120.59
G0 X121.211 Y120.821
G1 F753.9 X122.991 Y114.179 E65.60282
G0 F15000 X122.991 Y114.41
G0 X123.59 Y117.416
G0 X123.82 Y117.416
G1 F753.9 X111.18 Y120.803 E66.03806
G0 F15000 X111.38 Y120.62
G0 X111.41 Y117.466
G0 X111.18 Y117.466
G1 F753.9 X114.534 Y120.821 E66.19585
G0 F15000 X114.534 Y120.59
G0 X112.715 Y114.41
G0 X112.715 Y114.18
G1 F753.9 X111.181 Y114.591 E66.24867
G0 F15000 X111.71 Y114.71
;MESH:NONMESH
G0 F300 X111.71 Y114.71 Z2.4
G0 F15000 X117.5 Y120.59
G0 X117.5 Y120.9
;TIME_ELAPSED:142.676537
;LAYER:11
;note -- min layer time used
;TYPE:WALL-INNER
;MESH:TouchSpacer.stl
G1 F755.2 X123.9 Y120.9 E66.46153
G1 X123.9 Y114.1 E66.6877
G1 X111.1 Y114.1 E67.11343
G1 X111.1 Y120.9 E67.3396
G1 X117.5 Y120.9 E67.55246
G0 F15000 X117.5 Y121.3
;TYPE:WALL-OUTER
G1 F755.2 X124.3 Y121.3 E67.77863
G1 X124.3 Y113.7 E68.03141
G1 X110.7 Y113.7 E68.48375
G1 X110.7 Y121.3 E68.73653
G1 X117.5 Y121.3 E68.96269
G0 F15000 X117.5 Y120.59
G0 X114.853 Y120.59
G0 X114.853 Y120.821
;TYPE:FILL
G1 F755.2 X116.632 Y114.179 E69.19139
G1 X116.58 Y114.18
G1 X123.22 Y120.821 E69.50374
G0 F15000 X123.22 Y120.59
G0 X121.064 Y120.59
G0 X121.064 Y120.821
G1 F755.2 X122.844 Y114.179 E69.73245
G0 F15000 X122.844 Y114.41
G0 X123.59 Y117.563
G0 X123.82 Y117.563
G1 F755.2 X111.662 Y120.82 E70.15109
G0 F15000 X111.662 Y120.59
G0 X114.735 Y120.59
G0 X114.735 Y120.821
G1 F755.2 X111.18 Y117.265 E70.31833
G0 F15000 X111.41 Y117.265
G0 X111.41 Y114.738
G0 X111.181 Y114.738
G1 F755.2 X113.263 Y114.18 E70.39002
G0 F15000 X113.263 Y114.71
;MESH:NONMESH
G0 F300 X113.263 Y114.71 Z2.6
G0 F15000 X117.5 Y120.59
G0 X117.5 Y120.9
;TIME_ELAPSED:153.977523
;LAYER:12
;note -- min layer time used
;TYPE:WALL-INNER
;MESH:TouchSpacer.stl
G1 F758 X123.9 Y120.9 E70.60288
G1 X123.9 Y114.1 E70.82905
G1 X111.1 Y114.1 E71.25478
G1 X111.1 Y120.9 E71.48095
G1 X117.5 Y120.9 E71.69382
G0 F15000 X117.5 Y121.3
;TYPE:WALL-OUTER
G1 F758 X124.3 Y121.3 E71.91999
G1 X124.3 Y113.7 E72.17276
G1 X110.7 Y113.7 E72.6251
G1 X110.7 Y121.3 E72.87788
G1 X117.5 Y121.3 E73.10405
G0 F15000 X117.5 Y120.59
G0 X114.935 Y120.59
G0 X114.935 Y120.821
;TYPE:FILL
G1 F758 X111.18 Y117.066 E73.28067
G0 F15000 X111.41 Y117.066
G0 X111.41 Y114.884
G0 X111.181 Y114.884
G1 F758 X113.809 Y114.18 E73.37116
G0 F15000 X113.809 Y114.41
G0 X116.486 Y114.41
G0 X116.486 Y114.179
G1 F758 X114.707 Y120.82 E73.59983
G0 F15000 X114.707 Y120.59
G0 X112.207 Y120.59
G0 X112.207 Y120.821
G1 F758 X123.819 Y117.709 E73.99967
G0 F15000 X123.59 Y117.709
G0 X123.42 Y120.59
G0 X123.42 Y120.821
G1 F758 X116.779 Y114.18 E74.31205
G0 F15000 X116.779 Y114.41
G0 X122.698 Y114.41
G0 X122.698 Y114.179
G1 F758 X120.919 Y120.82 E74.54071
G0 F15000 X120.919 Y120.29
;MESH:NONMESH
G0 F300 X120.919 Y120.29 Z2.8
G0 F15000 X117.5 Y120.59
G0 X117.5 Y120.9
;TIME_ELAPSED:165.437136
;LAYER:13
;note -- min layer time used
;TYPE:WALL-INNER
;MESH:TouchSpacer.stl
G1 F757.7 X123.9 Y120.9 E74.75358
G1 X123.9 Y114.1 E74.97975
G1 X111.1 Y114.1 E75.40548
G1 X111.1 Y120.9 E75.63165
G1 X117.5 Y120.9 E75.84451
G0 F15000 X117.5 Y121.3
;TYPE:WALL-OUTER
G1 F757.7 X124.3 Y121.3 E76.07068
G1 X124.3 Y113.7 E76.32346
G1 X110.7 Y113.7 E76.7758
G1 X110.7 Y121.3 E77.02857
G1 X117.5 Y121.3 E77.25474
G0 F15000 X117.5 Y120.59
G0 X115.134 Y120.59
G0 X115.134 Y120.821
;TYPE:FILL
G1 F757.7 X111.18 Y116.866 E77.44075
G0 F15000 X111.41 Y116.866
G0 X111.41 Y115.03
G0 X111.18 Y115.03
G1 F757.7 X114.353 Y114.18 E77.55
G0 F15000 X114.353 Y114.41
G0 X116.34 Y114.41
G0 X116.34 Y114.18
G1 F757.7 X114.561 Y120.82 E77.77864
G0 F15000 X114.561 Y120.59
G0 X112.753 Y120.59
G0 X112.753 Y120.82
G1 F757.7 X123.819 Y117.855 E78.15968
G0 F15000 X123.59 Y117.855
G0 X123.619 Y120.59
G0 X123.619 Y120.821
G1 F757.7 X116.979 Y114.18 E78.47203
G0 F15000 X116.979 Y114.41
G0 X122.552 Y114.41
G0 X122.552 Y114.179
G1 F757.7 X120.773 Y120.82 E78.7007
G0 F15000 X120.773 Y120.29
;MESH:NONMESH
G0 F300 X120.773 Y120.29 Z3
G0 F15000 X117.5 Y120.59
G0 X117.5 Y120.9
;TIME_ELAPSED:176.852519
;LAYER:14
;note -- min layer time used
;TYPE:WALL-INNER
;MESH:TouchSpacer.stl
G1 F758.7 X123.9 Y120.9 E78.91356
G1 X123.9 Y114.1 E79.13973
G1 X111.1 Y114.1 E79.56546
G1 X111.1 Y120.9 E79.79163
G1 X117.5 Y120.9 E80.0045
G0 F15000 X117.5 Y121.3
;TYPE:WALL-OUTER
G1 F758.7 X124.3 Y121.3 E80.23066
G1 X124.3 Y113.7 E80.48344
G1 X110.7 Y113.7 E80.93578
G1 X110.7 Y121.3 E81.18856
G1 X117.5 Y121.3 E81.41472
G0 F15000 X117.5 Y120.59
G0 X115.335 Y120.59
G0 X115.335 Y120.821
;TYPE:FILL
G1 F758.7 X111.18 Y116.666 E81.61016
G0 F15000 X111.41 Y116.666
G0 X111.41 Y115.177
G0 X111.18 Y115.177
G1 F758.7 X114.902 Y114.18 E81.73832
G0 F15000 X114.902 Y114.41
G0 X116.193 Y114.41
G0 X116.193 Y114.18
G1 F758.7 X114.414 Y120.82 E81.96696
G0 F15000 X114.414 Y120.59
G0 X113.301 Y120.59
G0 X113.301 Y120.82
G1 F758.7 X123.819 Y118.002 E82.32913
G0 F15000 X123.59 Y118.002
G0 X123.62 Y120.62
G0 X123.82 Y120.821
G1 F758.7 X117.18 Y114.18 E82.64148
G0 F15000 X117.18 Y114.41
G0 X122.405 Y114.41
G0 X122.405 Y114.179
G1 F758.7 X120.626 Y120.82 E82.87014
G0 F15000 X120.626 Y120.29
;MESH:NONMESH
G0 F300 X120.626 Y120.29 Z3.2
G0 F15000 X117.5 Y120.59
G0 X117.5 Y120.9
;TIME_ELAPSED:188.204703
;LAYER:15
;note -- min layer time used
;TYPE:WALL-INNER
;MESH:TouchSpacer.stl
G1 F1068.4 X123.9 Y120.9 E83.08301
G1 X123.9 Y114.1 E83.30918
G1 X111.1 Y114.1 E83.73491
G1 X111.1 Y120.9 E83.96108
G1 X117.5 Y120.9 E84.17394
G0 F15000 X117.5 Y121.3
;TYPE:WALL-OUTER
G1 F1068.4 X124.3 Y121.3 E84.40011
G1 X124.3 Y113.7 E84.65289
G1 X110.7 Y113.7 E85.10522
G1 X110.7 Y121.3 E85.358
G1 X117.5 Y121.3 E85.58417
G0 F15000 X117.5 Y120.59
G0 X116.908 Y120
;TYPE:FILL
G1 F1068.4 X113.846 Y120.82 E85.6896
G1 X114 Y120.7
G1 X114 Y119.288 E85.73657
G0 F15000 X113.2 Y118.488
G1 F1068.4 X113.2 Y120.7 E85.81014
G0 F15000 X112.8 Y120.7
G1 F1068.4 X112.8 Y118.088 E85.89701
G0 F15000 X112.4 Y117.688
G1 F1068.4 X112.4 Y120.7 E85.99719
G0 F15000 X112 Y120.7
G1 F1068.4 X112 Y117.288 E86.11068
G0 F15000 X111.6 Y116.888
G1 F1068.4 X111.6 Y120.7 E86.23746
G0 F15000 X111.6 Y120.59
G0 X114.268 Y120.59
G0 X114.268 Y120.821
G1 F1068.4 X115.881 Y114.8 E86.44478
G1 X117.998 Y114.8 E86.5152
G1 X123.198 Y120 E86.75979
G1 X123.2 Y120
G1 X120.7 Y120 E86.84294
G1 X120.48 Y120.82 E86.87118
G0 F15000 X120.699 Y120
G0 X122.752 Y118.434
G1 F1068.4 X122.925 Y114.3 E87.00879
G0 F15000 X123.326 Y114.3
G1 F1068.4 X123.157 Y118.326 E87.14282
G1 X123.2 Y118.313
G1 X116.908 Y120 E87.35948
G1 X120.699 Y120 E87.48557
G1 X122.093 Y114.8 E87.66463
G0 F15000 X122.259 Y114.18
G1 F1068.4 X122.093 Y114.8 E87.68598
G1 X118 Y114.8 E87.82211
G1 X117.379 Y114.18 E87.8513
G0 F15000 X117.998 Y114.8
G0 X116.047 Y114.41
G0 X116.047 Y114.18
G1 F1068.4 X115.881 Y114.8 E87.87265
G1 X115.917 Y114.666
G1 X111.3 Y116.487 E88.03772
G1 X111.18 Y116.466
G1 X115.534 Y120.821 E88.24254
G0 F15000 X115.534 Y120.59
G0 X111.41 Y116.057
G0 X111.3 Y116.057
G1 F1068.4 X115.754 Y114.3 E88.40179
G0 F15000 X115.447 Y114.18
G1 F1068.4 X111.181 Y115.323 E88.54868
G0 F15000 X112 Y115.104
G1 F1068.4 X112 Y114.3 E88.57543
G0 F15000 X112 Y114.41
G0 X123.59 Y118.148
G0 X123.819 Y118.148
G1 F1068.4 X123.2 Y118.313 E88.59673
G1 X123.2 Y120 E88.65284
G1 X123.82 Y120.621 E88.68203
G0 F15000 X123.29 Y120.29
;MESH:NONMESH
G0 F300 X123.29 Y120.29 Z3.4
G0 F15000 X117.5 Y120.59
G0 X117.5 Y120.9
;TIME_ELAPSED:200.675212
;LAYER:16
;note -- min layer time used
;TYPE:WALL-INNER
;MESH:TouchSpacer.stl
G1 F1724.4 X123.9 Y120.9 E88.89489
G1 X123.9 Y114.1 E89.12106
G1 X111.1 Y114.1 E89.54679
G1 X111.1 Y120.9 E89.77296
G1 X117.5 Y120.9 E89.98583
G0 F15000 X117.5 Y121.3
;TYPE:WALL-OUTER
G1 F1724.4 X124.3 Y121.3 E90.212
G1 X124.3 Y113.7 E90.46477
G1 X110.7 Y113.7 E90.91711
G1 X110.7 Y121.3 E91.16989
G1 X117.5 Y121.3 E91.39606
G0 F15000 X117.5 Y120.54
;TYPE:SKIN
G1 F1724.4 X111.46 Y120.54 E91.59695
G1 X111.46 Y114.46 E91.79917
G1 X123.54 Y114.46 E92.20095
G1 X123.54 Y120.54 E92.40317
G1 X117.5 Y120.54 E92.60406
G0 F15000 X117.5 Y120.8
G0 X111.272 Y120.728
G0 X111.2 Y120.145
G0 X111.66 Y120.145
G1 F1724.4 X111.855 Y120.34 E92.61324
G0 F15000 X112.421 Y120.34
G1 F1724.4 X111.66 Y119.58 E92.64901
G0 F15000 X111.66 Y119.014
G1 F1724.4 X112.986 Y120.34 E92.71138
G0 F15000 X113.552 Y120.34
G1 F1724.4 X111.66 Y118.448 E92.80037
G0 F15000 X111.66 Y117.882
G1 F1724.4 X114.118 Y120.34 E92.91599
G0 F15000 X114.684 Y120.34
G1 F1724.4 X111.66 Y117.317 E93.05821
G0 F15000 X111.66 Y116.751
G1 F1724.4 X115.249 Y120.34 E93.22702
G0 F15000 X115.815 Y120.34
G1 F1724.4 X111.66 Y116.185 E93.42246
G0 F15000 X111.66 Y115.62
G1 F1724.4 X116.381 Y120.34 E93.6445
G0 F15000 X116.946 Y120.34
G1 F1724.4 X111.66 Y115.054 E93.89313
G0 F15000 X111.831 Y114.659
G1 F1724.4 X117.512 Y120.34 E94.16035
G0 F15000 X118.078 Y120.34
G1 F1724.4 X112.397 Y114.659 E94.42757
G0 F15000 X112.962 Y114.659
G1 F1724.4 X118.643 Y120.34 E94.69479
G0 F15000 X119.209 Y120.34
G1 F1724.4 X113.528 Y114.659 E94.962
G0 F15000 X114.094 Y114.659
G1 F1724.4 X119.775 Y120.34 E95.22922
G0 F15000 X120.34 Y120.34
G1 F1724.4 X114.659 Y114.659 E95.49644
G0 F15000 X115.225 Y114.659
G1 F1724.4 X120.906 Y120.34 E95.76365
G0 F15000 X121.472 Y120.34
G1 F1724.4 X115.791 Y114.659 E96.03087
G0 F15000 X116.357 Y114.659
G1 F1724.4 X122.037 Y120.34 E96.29806
G0 F15000 X122.603 Y120.34
G1 F1724.4 X116.922 Y114.659 E96.56528
G0 F15000 X117.488 Y114.659
G1 F1724.4 X123.169 Y120.34 E96.8325
G0 F15000 X123.34 Y119.946
G1 F1724.4 X118.054 Y114.659 E97.08116
G0 F15000 X118.619 Y114.659
G1 F1724.4 X123.34 Y119.38 E97.30322
G0 F15000 X123.34 Y118.814
G1 F1724.4 X119.185 Y114.659 E97.49866
G0 F15000 X119.751 Y114.659
G1 F1724.4 X123.34 Y118.249 E97.6675
G0 F15000 X123.34 Y117.683
G1 F1724.4 X120.316 Y114.659 E97.80974
G0 F15000 X120.882 Y114.659
G1 F1724.4 X123.34 Y117.117 E97.92535
G0 F15000 X123.34 Y116.552
G1 F1724.4 X121.448 Y114.659 E98.01437
G0 F15000 X122.013 Y114.659
G1 F1724.4 X123.34 Y115.986 E98.07679
G0 F15000 X123.34 Y115.42
G1 F1724.4 X122.579 Y114.659 E98.11258
G0 F15000 X123.145 Y114.659
G1 F1724.4 X123.34 Y114.855 E98.12178
;MESH:NONMESH
G0 F300 X123.34 Y114.855 Z3.6
G0 F15000 X123.8 Y114.855
G0 X123.728 Y120.728
G0 X117.5 Y120.9
;TIME_ELAPSED:214.652657
;LAYER:17
;note -- min layer time used
;TYPE:WALL-INNER
;MESH:TouchSpacer.stl
G1 F1725.9 X123.9 Y120.9 E98.33464
G1 X123.9 Y114.1 E98.56081
G1 X111.1 Y114.1 E98.98654
G1 X111.1 Y120.9 E99.21271
G1 X117.5 Y120.9 E99.42558
G0 F15000 X117.5 Y121.3
;TYPE:WALL-OUTER
G1 F1725.9 X124.3 Y121.3 E99.65174
G1 X124.3 Y113.7 E99.90452
G1 X110.7 Y113.7 E100.35686
G1 X110.7 Y121.3 E100.60964
G1 X117.5 Y121.3 E100.83581
G0 F15000 X117.5 Y120.54
;TYPE:SKIN
G1 F1725.9 X111.46 Y120.54 E101.0367
G1 X111.46 Y114.46 E101.23892
G1 X123.54 Y114.46 E101.6407
G1 X123.54 Y120.54 E101.84292
G1 X117.5 Y120.54 E102.04381
G0 F15000 X117.5 Y120.8
G0 X123.728 Y120.728
G0 X123.8 Y119.905
G0 X123.34 Y119.905
G1 F1725.9 X122.904 Y120.34 E102.0643
G0 F15000 X122.339 Y120.34
G1 F1725.9 X123.34 Y119.339 E102.11138
G0 F15000 X123.34 Y118.773
G1 F1725.9 X121.773 Y120.34 E102.18509
G0 F15000 X121.207 Y120.34
G1 F1725.9 X123.34 Y118.208 E102.2854
G0 F15000 X123.34 Y117.642
G1 F1725.9 X120.642 Y120.34 E102.4123
G0 F15000 X120.076 Y120.34
G1 F1725.9 X123.34 Y117.076 E102.56583
G0 F15000 X123.34 Y116.511
G1 F1725.9 X119.51 Y120.34 E102.74596
G0 F15000 X118.945 Y120.34
G1 F1725.9 X123.34 Y115.945 E102.95269
G0 F15000 X123.34 Y115.379
G1 F1725.9 X118.379 Y120.34 E103.18604
G0 F15000 X117.813 Y120.34
G1 F1725.9 X123.34 Y114.814 E103.44598
G0 F15000 X122.928 Y114.659
G1 F1725.9 X117.247 Y120.34 E103.7132
G0 F15000 X116.682 Y120.34
G1 F1725.9 X122.363 Y114.659 E103.98042
G0 F15000 X121.797 Y114.659
G1 F1725.9 X116.116 Y120.34 E104.24764
G0 F15000 X115.55 Y120.34
G1 F1725.9 X121.231 Y114.659 E104.51485
G0 F15000 X120.666 Y114.659
G1 F1725.9 X114.985 Y120.34 E104.78207
G0 F15000 X114.419 Y120.34
G1 F1725.9 X120.1 Y114.659 E105.04929
G0 F15000 X119.534 Y114.659
G1 F1725.9 X113.853 Y120.34 E105.3165
G0 F15000 X113.288 Y120.34
G1 F1725.9 X118.969 Y114.659 E105.58372
G0 F15000 X118.403 Y114.659
G1 F1725.9 X112.722 Y120.34 E105.85094
G0 F15000 X112.156 Y120.34
G1 F1725.9 X117.837 Y114.659 E106.11815
G0 F15000 X117.272 Y114.659
G1 F1725.9 X111.66 Y120.271 E106.38212
G0 F15000 X111.66 Y119.705
G1 F1725.9 X116.706 Y114.659 E106.61947
G0 F15000 X116.14 Y114.659
G1 F1725.9 X111.66 Y119.14 E106.83022
G0 F15000 X111.66 Y118.574
G1 F1725.9 X115.574 Y114.659 E107.01435
G0 F15000 X115.009 Y114.659
G1 F1725.9 X111.66 Y118.008 E107.17187
G0 F15000 X111.66 Y117.443
G1 F1725.9 X114.443 Y114.659 E107.3028
G0 F15000 X113.877 Y114.659
G1 F1725.9 X111.66 Y116.877 E107.40711
G0 F15000 X111.66 Y116.311
G1 F1725.9 X113.312 Y114.659 E107.48481
G0 F15000 X112.746 Y114.659
G1 F1725.9 X111.66 Y115.746 E107.53592
G0 F15000 X111.66 Y115.18
G1 F1725.9 X112.18 Y114.659 E107.5604
;MESH:NONMESH
G0 F300 X112.18 Y114.659 Z3.8
G0 F15000 X112.18 Y114.2
G0 X111.272 Y114.272
G0 X111.272 Y120.728
G0 X117.5 Y120.9
;TIME_ELAPSED:228.650817
;LAYER:18
;note -- min layer time used
;TYPE:WALL-INNER
;MESH:TouchSpacer.stl
G1 F1726.1 X123.9 Y120.9 E107.77326
G1 X123.9 Y114.1 E107.99943
G1 X111.1 Y114.1 E108.42516
G1 X111.1 Y120.9 E108.65133
G1 X117.5 Y120.9 E108.8642
G0 F15000 X117.5 Y121.3
;TYPE:WALL-OUTER
G1 F1726.1 X124.3 Y121.3 E109.09037
G1 X124.3 Y113.7 E109.34314
G1 X110.7 Y113.7 E109.79548
G1 X110.7 Y121.3 E110.04826
G1 X117.5 Y121.3 E110.27443
G0 F15000 X117.5 Y120.54
;TYPE:SKIN
G1 F1726.1 X111.46 Y120.54 E110.47532
G1 X111.46 Y114.46 E110.67754
G1 X123.54 Y114.46 E111.07932
G1 X123.54 Y120.54 E111.28154
G1 X117.5 Y120.54 E111.48243
G0 F15000 X117.5 Y120.8
G0 X111.272 Y120.728
G0 X111.2 Y120.145
G0 X111.66 Y120.145
G1 F1726.1 X111.855 Y120.34 E111.49161
G0 F15000 X112.421 Y120.34
G1 F1726.1 X111.66 Y119.58 E111.52738
G0 F15000 X111.66 Y119.014
G1 F1726.1 X112.986 Y120.34 E111.58975
G0 F15000 X113.552 Y120.34
G1 F1726.1 X111.66 Y118.448 E111.67874
G0 F15000 X111.66 Y117.882
G1 F1726.1 X114.118 Y120.34 E111.79436
G0 F15000 X114.684 Y120.34
G1 F1726.1 X111.66 Y117.317 E111.93658
G0 F15000 X111.66 Y116.751
G1 F1726.1 X115.249 Y120.34 E112.10539
G0 F15000 X115.815 Y120.34
G1 F1726.1 X111.66 Y116.185 E112.30083
G0 F15000 X111.66 Y115.62
G1 F1726.1 X116.381 Y120.34 E112.52287
G0 F15000 X116.946 Y120.34
G1 F1726.1 X111.66 Y115.054 E112.77151
G0 F15000 X111.831 Y114.659
G1 F1726.1 X117.512 Y120.34 E113.03872
G0 F15000 X118.078 Y120.34
G1 F1726.1 X112.397 Y114.659 E113.30594
G0 F15000 X112.962 Y114.659
G1 F1726.1 X118.643 Y120.34 E113.57316
G0 F15000 X119.209 Y120.34
G1 F1726.1 X113.528 Y114.659 E113.84037
G0 F15000 X114.094 Y114.659
G1 F1726.1 X119.775 Y120.34 E114.10759
G0 F15000 X120.34 Y120.34
G1 F1726.1 X114.659 Y114.659 E114.37481
G0 F15000 X115.225 Y114.659
G1 F1726.1 X120.906 Y120.34 E114.64202
G0 F15000 X121.472 Y120.34
G1 F1726.1 X115.791 Y114.659 E114.90924
G0 F15000 X116.357 Y114.659
G1 F1726.1 X122.037 Y120.34 E115.17643
G0 F15000 X122.603 Y120.34
G1 F1726.1 X116.922 Y114.659 E115.44365
G0 F15000 X117.488 Y114.659
G1 F1726.1 X123.169 Y120.34 E115.71087
G0 F15000 X123.34 Y119.946
G1 F1726.1 X118.054 Y114.659 E115.95953
G0 F15000 X118.619 Y114.659
G1 F1726.1 X123.34 Y119.38 E116.18159
G0 F15000 X123.34 Y118.814
G1 F1726.1 X119.185 Y114.659 E116.37703
G0 F15000 X119.751 Y114.659
G1 F1726.1 X123.34 Y118.249 E116.54587
G0 F15000 X123.34 Y117.683
G1 F1726.1 X120.316 Y114.659 E116.68811
G0 F15000 X120.882 Y114.659
G1 F1726.1 X123.34 Y117.117 E116.80372
G0 F15000 X123.34 Y116.552
G1 F1726.1 X121.448 Y114.659 E116.89274
G0 F15000 X122.013 Y114.659
G1 F1726.1 X123.34 Y115.986 E116.95516
G0 F15000 X123.34 Y115.42
G1 F1726.1 X122.579 Y114.659 E116.99095
G0 F15000 X123.145 Y114.659
G1 F1726.1 X123.34 Y114.855 E117.00015
;MESH:NONMESH
G0 F300 X123.34 Y114.855 Z4
G0 F15000 X123.8 Y114.855
G0 X123.728 Y120.728
G0 X117.5 Y120.9
;TIME_ELAPSED:242.620884
;LAYER:19
;note -- min layer time used
;TYPE:WALL-INNER
;MESH:TouchSpacer.stl
G1 F1725.9 X123.9 Y120.9 E117.21301
G1 X123.9 Y114.1 E117.43918
G1 X111.1 Y114.1 E117.86491
G1 X111.1 Y120.9 E118.09108
G1 X117.5 Y120.9 E118.30395
G0 F15000 X117.5 Y121.3
;TYPE:WALL-OUTER
G1 F1725.9 X124.3 Y121.3 E118.53012
G1 X124.3 Y113.7 E118.78289
G1 X110.7 Y113.7 E119.23523
G1 X110.7 Y121.3 E119.48801
G1 X117.5 Y121.3 E119.71418
G0 F15000 X117.5 Y120.54
;TYPE:SKIN
G1 F1725.9 X111.46 Y120.54 E119.91507
G1 X111.46 Y114.46 E120.11729
G1 X123.54 Y114.46 E120.51907
G1 X123.54 Y120.54 E120.72129
G1 X117.5 Y120.54 E120.92218
G0 F15000 X117.5 Y120.8
G0 X123.728 Y120.728
G0 X123.8 Y119.905
G0 X123.34 Y119.905
G1 F1725.9 X122.904 Y120.34 E120.94267
G0 F15000 X122.339 Y120.34
G1 F1725.9 X123.34 Y119.339 E120.98975
G0 F15000 X123.34 Y118.773
G1 F1725.9 X121.773 Y120.34 E121.06346
G0 F15000 X121.207 Y120.34
G1 F1725.9 X123.34 Y118.208 E121.16377
G0 F15000 X123.34 Y117.642
G1 F1725.9 X120.642 Y120.34 E121.29067
G0 F15000 X120.076 Y120.34
G1 F1725.9 X123.34 Y117.076 E121.4442
G0 F15000 X123.34 Y116.511
G1 F1725.9 X119.51 Y120.34 E121.62433
G0 F15000 X118.945 Y120.34
G1 F1725.9 X123.34 Y115.945 E121.83106
G0 F15000 X123.34 Y115.379
G1 F1725.9 X118.379 Y120.34 E122.06441
G0 F15000 X117.813 Y120.34
G1 F1725.9 X123.34 Y114.814 E122.32436
G0 F15000 X122.928 Y114.659
G1 F1725.9 X117.247 Y120.34 E122.59157
G0 F15000 X116.682 Y120.34
G1 F1725.9 X122.363 Y114.659 E122.85879
G0 F15000 X121.797 Y114.659
G1 F1725.9 X116.116 Y120.34 E123.12601
G0 F15000 X115.55 Y120.34
G1 F1725.9 X121.231 Y114.659 E123.39322
G0 F15000 X120.666 Y114.659
G1 F1725.9 X114.985 Y120.34 E123.66044
G0 F15000 X114.419 Y120.34
G1 F1725.9 X120.1 Y114.659 E123.92766
G0 F15000 X119.534 Y114.659
G1 F1725.9 X113.853 Y120.34 E124.19487
G0 F15000 X113.288 Y120.34
G1 F1725.9 X118.969 Y114.659 E124.46209
G0 F15000 X118.403 Y114.659
G1 F1725.9 X112.722 Y120.34 E124.72931
G0 F15000 X112.156 Y120.34
G1 F1725.9 X117.837 Y114.659 E124.99652
G0 F15000 X117.272 Y114.659
G1 F1725.9 X111.66 Y120.271 E125.2605
G0 F15000 X111.66 Y119.705
G1 F1725.9 X116.706 Y114.659 E125.49784
G0 F15000 X116.14 Y114.659
G1 F1725.9 X111.66 Y119.14 E125.70859
G0 F15000 X111.66 Y118.574
G1 F1725.9 X115.574 Y114.659 E125.89272
G0 F15000 X115.009 Y114.659
G1 F1725.9 X111.66 Y118.008 E126.05025
G0 F15000 X111.66 Y117.443
G1 F1725.9 X114.443 Y114.659 E126.18117
G0 F15000 X113.877 Y114.659
G1 F1725.9 X111.66 Y116.877 E126.28548
G0 F15000 X111.66 Y116.311
G1 F1725.9 X113.312 Y114.659 E126.36318
G0 F15000 X112.746 Y114.659
G1 F1725.9 X111.66 Y115.746 E126.41429
G0 F15000 X111.66 Y115.18
G1 F1725.9 X112.18 Y114.659 E126.43877
;TIME_ELAPSED:256.045680
G1 F2700 E121.43877
M140 S0
M107
G91 ;Relative positioning
G1 E-2 F2700 ;Retract a bit
G1 E-2 Z0.2 F2400 ;Retract and raise Z
G1 X5 Y5 F3000 ;Wipe out
G1 Z10 ;Raise Z more
G90 ;Absolute positioning

G1 X0 Y235 ;Present print
M106 S0 ;Turn-off fan
M104 S0 ;Turn-off hotend
M140 S0 ;Turn-off bed

M84 X Y E ;Disable all steppers but Z

M82 ;absolute extrusion mode
M104 S0
;End of Gcode
;SETTING_3 {"global_quality": "[general]\\nversion = 4\\nname = Ender 3 Custom P
;SETTING_3 rofile\\ndefinition = creality_ender3\\n\\n[metadata]\\ntype = qualit
;SETTING_3 y_changes\\nquality_type = standard\\nsetting_version = 25\\n\\n[valu
;SETTING_3 es]\\nadhesion_type = none\\n\\n", "extruder_quality": ["[general]\\n
;SETTING_3 version = 4\\nname = Ender 3 Custom Profile\\ndefinition = creality_e
;SETTING_3 nder3\\n\\n[metadata]\\ntype = quality_changes\\nquality_type = stand
;SETTING_3 ard\\nintent_category = default\\nposition = 0\\nsetting_version = 25
;SETTING_3 \\n\\n[values]\\nspeed_print = 100\\n\\n"]}
